{"type": "FeatureCollection", "features": [{"type": "Feature", "properties": {"norad_id": 28890, "name": "BEIJING 1", "group": "dmc", "lat": -44.0793302260343, "lon": -70.41537814823002, "alt_km": 689.6642741005589, "timestamp": "2025-12-16T03:53:26.725382+00:00", "meta": {"OBJECT_NAME": "BEIJING 1", "OBJECT_ID": "2005-043A", "EPOCH": "2025-12-15T08:49:03.854208", "MEAN_MOTION": 14.63370099, "ECCENTRICITY": 0.00154691, "INCLINATION": 98.2647, "RA_OF_ASC_NODE": 116.8798, "ARG_OF_PERICENTER": 133.4686, "MEAN_ANOMALY": 226.7805, "EPHEMERIS_TYPE": 0, "CLASSIFICATION_TYPE": "U", "NORAD_CAT_ID": 28890, "ELEMENT_SET_NO": 999, "REV_AT_EPOCH": 7376, "BSTAR": 0.00012046339, "MEAN_MOTION_DOT": 5.75e-06, "MEAN_MOTION_DDOT": 0}, "tle": {"line1": "1 28890U 05043A   25349.36740572  .00000575  00000+0  12046-3 0  9998", "line2": "2 28890  98.2647 116.8798 0015469 133.4686 226.7805 14.63370099 73766"}}, "geometry": {"type": "Point", "coordinates": [-70.41537814823002, -44.0793302260343]}}, {"type": "Feature", "properties": {"norad_id": 33320, "name": "HUANJING 1A (HJ-1A)", "group": "dmc", "lat": 41.18360590438683, "lon": 165.07516175329374, "alt_km": 621.1800254572208, "timestamp": "2025-12-16T03:53:26.725405+00:00", "meta": {"OBJECT_NAME": "HUANJING 1A (HJ-1A)", "OBJECT_ID": "2008-041A", "EPOCH": "2025-12-15T07:50:39.020064", "MEAN_MOTION": 14.8340641, "ECCENTRICITY": 0.00200094, "INCLINATION": 97.6541, "RA_OF_ASC_NODE": 337.5176, "ARG_OF_PERICENTER": 26.1998, "MEAN_ANOMALY": 334.0224, "EPHEMERIS_TYPE": 0, "CLASSIFICATION_TYPE": "U", "NORAD_CAT_ID": 33320, "ELEMENT_SET_NO": 999, "REV_AT_EPOCH": 93114, "BSTAR": 0.00028289196, "MEAN_MOTION_DOT": 2.278e-05, "MEAN_MOTION_DDOT": 0}, "tle": {"line1": "1 33320U 08041A   25349.32684051  .00002278  00000+0  28289-3 0  9996", "line2": "2 33320  97.6541 337.5176 0020009  26.1998 334.0224 14.83406410931140"}}, "geometry": {"type": "Point", "coordinates": [165.07516175329374, 41.18360590438683]}}, {"type": "Feature", "properties": {"norad_id": 33321, "name": "HUANJING 1B (HJ-1B)", "group": "dmc", "lat": -8.349560071115196, "lon": -16.864831308169563, "alt_km": 616.5785345089926, "timestamp": "2025-12-16T03:53:26.725420+00:00", "meta": {"OBJECT_NAME": "HUANJING 1B (HJ-1B)", "OBJECT_ID": "2008-041B", "EPOCH": "2025-12-15T08:29:39.825888", "MEAN_MOTION": 14.82833651, "ECCENTRICITY": 0.00382064, "INCLINATION": 97.6402, "RA_OF_ASC_NODE": 341.2339, "ARG_OF_PERICENTER": 67.4726, "MEAN_ANOMALY": 293.0525, "EPHEMERIS_TYPE": 0, "CLASSIFICATION_TYPE": "U", "NORAD_CAT_ID": 33321, "ELEMENT_SET_NO": 999, "REV_AT_EPOCH": 93116, "BSTAR": 0.00029321683, "MEAN_MOTION_DOT": 2.352e-05, "MEAN_MOTION_DDOT": 0}, "tle": {"line1": "1 33321U 08041B   25349.35393317  .00002352  00000+0  29322-3 0  9994", "line2": "2 33321  97.6402 341.2339 0038206  67.4726 293.0525 14.82833651931165"}}, "geometry": {"type": "Point", "coordinates": [-16.864831308169563, -8.349560071115196]}}, {"type": "Feature", "properties": {"norad_id": 33446, "name": "YAOGAN-4", "group": "dmc", "lat": -78.76105500586532, "lon": 55.769475334082635, "alt_km": 622.08936764401, "timestamp": "2025-12-16T03:53:26.725432+00:00", "meta": {"OBJECT_NAME": "YAOGAN-4", "OBJECT_ID": "2008-061A", "EPOCH": "2025-12-15T07:16:32.228256", "MEAN_MOTION": 14.82691617, "ECCENTRICITY": 0.00133933, "INCLINATION": 97.918, "RA_OF_ASC_NODE": 279.3773, "ARG_OF_PERICENTER": 314.3487, "MEAN_ANOMALY": 45.6628, "EPHEMERIS_TYPE": 0, "CLASSIFICATION_TYPE": "U", "NORAD_CAT_ID": 33446, "ELEMENT_SET_NO": 999, "REV_AT_EPOCH": 91841, "BSTAR": 0.00017368353, "MEAN_MOTION_DOT": 1.349e-05, "MEAN_MOTION_DDOT": 0}, "tle": {"line1": "1 33446U 08061A   25349.30315079  .00001349  00000+0  17368-3 0  9990", "line2": "2 33446  97.9180 279.3773 0013393 314.3487  45.6628 14.82691617918412"}}, "geometry": {"type": "Point", "coordinates": [55.769475334082635, -78.76105500586532]}}, {"type": "Feature", "properties": {"norad_id": 35681, "name": "DEIMOS-1", "group": "dmc", "lat": -62.3292980021609, "lon": 165.58784065790869, "alt_km": 653.839545250873, "timestamp": "2025-12-16T03:53:26.725444+00:00", "meta": {"OBJECT_NAME": "DEIMOS-1", "OBJECT_ID": "2009-041A", "EPOCH": "2025-12-15T08:38:22.964928", "MEAN_MOTION": 14.74959069, "ECCENTRICITY": 0.00027039, "INCLINATION": 97.7148, "RA_OF_ASC_NODE": 149.8409, "ARG_OF_PERICENTER": 75.5264, "MEAN_ANOMALY": 284.6246, "EPHEMERIS_TYPE": 0, "CLASSIFICATION_TYPE": "U", "NORAD_CAT_ID": 35681, "ELEMENT_SET_NO": 999, "REV_AT_EPOCH": 87978, "BSTAR": 0.00017355814, "MEAN_MOTION_DOT": 1.119e-05, "MEAN_MOTION_DDOT": 0}, "tle": {"line1": "1 35681U 09041A   25349.35998802  .00001119  00000+0  17356-3 0  9990", "line2": "2 35681  97.7148 149.8409 0002703  75.5264 284.6246 14.74959069879782"}}, "geometry": {"type": "Point", "coordinates": [165.58784065790869, -62.3292980021609]}}, {"type": "Feature", "properties": {"norad_id": 35683, "name": "UK-DMC 2", "group": "dmc", "lat": -39.561579621128494, "lon": 131.5166608627836, "alt_km": 650.3841441643526, "timestamp": "2025-12-16T03:53:26.725455+00:00", "meta": {"OBJECT_NAME": "UK-DMC 2", "OBJECT_ID": "2009-041C", "EPOCH": "2025-12-15T08:32:34.225152", "MEAN_MOTION": 14.75631036, "ECCENTRICITY": 0.00014829, "INCLINATION": 97.8556, "RA_OF_ASC_NODE": 124.1841, "ARG_OF_PERICENTER": 97.2578, "MEAN_ANOMALY": 262.88, "EPHEMERIS_TYPE": 0, "CLASSIFICATION_TYPE": "U", "NORAD_CAT_ID": 35683, "ELEMENT_SET_NO": 999, "REV_AT_EPOCH": 87945, "BSTAR": 0.00024105001, "MEAN_MOTION_DOT": 1.596e-05, "MEAN_MOTION_DDOT": 0}, "tle": {"line1": "1 35683U 09041C   25349.35595168  .00001596  00000+0  24105-3 0  9999", "line2": "2 35683  97.8556 124.1841 0001482  97.2578 262.8800 14.75631036879456"}}, "geometry": {"type": "Point", "coordinates": [131.5166608627836, -39.561579621128494]}}, {"type": "Feature", "properties": {"norad_id": 40715, "name": "DMC3-FM1", "group": "dmc", "lat": 49.52528840311728, "lon": 46.31569402931898, "alt_km": 610.8104832723366, "timestamp": "2025-12-16T03:53:26.725467+00:00", "meta": {"OBJECT_NAME": "DMC3-FM1", "OBJECT_ID": "2015-032A", "EPOCH": "2025-12-15T07:54:29.650176", "MEAN_MOTION": 14.8544744, "ECCENTRICITY": 0.00044511, "INCLINATION": 97.6694, "RA_OF_ASC_NODE": 216.4277, "ARG_OF_PERICENTER": 311.2325, "MEAN_ANOMALY": 48.8506, "EPHEMERIS_TYPE": 0, "CLASSIFICATION_TYPE": "U", "NORAD_CAT_ID": 40715, "ELEMENT_SET_NO": 999, "REV_AT_EPOCH": 56261, "BSTAR": 0.00017136186, "MEAN_MOTION_DOT": 1.426e-05, "MEAN_MOTION_DDOT": 0}, "tle": {"line1": "1 40715U 15032A   25349.32950984  .00001426  00000+0  17136-3 0  9994", "line2": "2 40715  97.6694 216.4277 0004451 311.2325  48.8506 14.85447440562612"}}, "geometry": {"type": "Point", "coordinates": [46.31569402931898, 49.52528840311728]}}, {"type": "Feature", "properties": {"norad_id": 40716, "name": "DMC3-FM2", "group": "dmc", "lat": 9.44549867213496, "lon": -142.6093944651556, "alt_km": 611.8410979185019, "timestamp": "2025-12-16T03:53:26.725477+00:00", "meta": {"OBJECT_NAME": "DMC3-FM2", "OBJECT_ID": "2015-032B", "EPOCH": "2025-12-15T08:26:52.874304", "MEAN_MOTION": 14.85450337, "ECCENTRICITY": 0.00051046, "INCLINATION": 97.6752, "RA_OF_ASC_NODE": 217.8952, "ARG_OF_PERICENTER": 317.2988, "MEAN_ANOMALY": 42.783, "EPHEMERIS_TYPE": 0, "CLASSIFICATION_TYPE": "U", "NORAD_CAT_ID": 40716, "ELEMENT_SET_NO": 999, "REV_AT_EPOCH": 56261, "BSTAR": 0.00016991926, "MEAN_MOTION_DOT": 1.414e-05, "MEAN_MOTION_DDOT": 0}, "tle": {"line1": "1 40716U 15032B   25349.35200086  .00001414  00000+0  16992-3 0  9995", "line2": "2 40716  97.6752 217.8952 0005104 317.2988  42.7830 14.85450337562612"}}, "geometry": {"type": "Point", "coordinates": [-142.6093944651556, 9.44549867213496]}}, {"type": "Feature", "properties": {"norad_id": 40717, "name": "DMC3-FM3", "group": "dmc", "lat": -72.17251286588176, "lon": 15.49993315061947, "alt_km": 618.084465040748, "timestamp": "2025-12-16T03:53:26.725488+00:00", "meta": {"OBJECT_NAME": "DMC3-FM3", "OBJECT_ID": "2015-032C", "EPOCH": "2025-12-15T08:58:03.118944", "MEAN_MOTION": 14.85434006, "ECCENTRICITY": 0.00044876, "INCLINATION": 97.6806, "RA_OF_ASC_NODE": 219.5508, "ARG_OF_PERICENTER": 318.9588, "MEAN_ANOMALY": 41.129, "EPHEMERIS_TYPE": 0, "CLASSIFICATION_TYPE": "U", "NORAD_CAT_ID": 40717, "ELEMENT_SET_NO": 999, "REV_AT_EPOCH": 56262, "BSTAR": 4.7211657e-05, "MEAN_MOTION_DOT": 3.55e-06, "MEAN_MOTION_DDOT": 0}, "tle": {"line1": "1 40717U 15032C   25349.37364721  .00000355  00000+0  47212-4 0  9998", "line2": "2 40717  97.6806 219.5508 0004487 318.9588  41.1290 14.85434006562625"}}, "geometry": {"type": "Point", "coordinates": [15.49993315061947, -72.17251286588176]}}]}